COSMOS 2425 (716)       
1 29670U 06062A   17314.39462314  .00000008  00000-0  10000-3 0  9998
2 29670  65.3897 299.9291 0021300 337.8232   2.2857  2.13105043 84644
COSMOS 2426 (717)       
1 29671U 06062B   17314.24902765  .00000009  00000-0  10000-3 0  9993
2 29671  65.4076 300.0272 0017889 174.4112 271.2741  2.13103099 84657
COSMOS 2433 (720)       
1 32275U 07052A   17314.50248785 -.00000034  00000-0  10000-3 0  9990
2 32275  65.5838  60.7091 0002337 222.7262  32.0101  2.13104872 78164
COSMOS 2432 (719)       
1 32276U 07052B   17313.62476626 -.00000026  00000-0  10000-3 0  9991
2 32276  65.5958  60.8119 0009545 336.4637 277.4386  2.13104001 78149
COSMOS 2434 (721)       
1 32393U 07065A   17314.29609429  .00000008  00000-0  00000+0 0  9992
2 32393  65.0054 299.0116 0002444 157.3812 187.9052  2.13102998 76865
COSMOS 2436 (723)       
1 32395U 07065C   17313.57642074  .00000009  00000-0  10000-3 0  9993
2 32395  65.0155 299.0853 0014330 349.0194 213.5727  2.13104376 76785
COSMOS 2456 (730)       
1 36111U 09070A   17314.11741741  .00000032  00000-0  00000+0 0  9994
2 36111  64.1788 178.5888 0003603 333.1208  46.7001  2.13103014 61533
COSMOS 2457 (733)       
1 36112U 09070B   17313.84476635  .00000033  00000-0  00000+0 0  9992
2 36112  64.1610 178.5140 0006462 156.2741 142.2888  2.13101797 61521
COSMOS 2458 (734)       
1 36113U 09070C   17314.35634554  .00000033  00000-0  10000-3 0  9991
2 36113  64.1658 178.5059 0002339  42.1374 336.9828  2.13101960 61547
COSMOS 2459 (731)       
1 36400U 10007A   17313.54495674 -.00000028  00000-0  10000-3 0  9995
2 36400  65.4915  59.8290 0025579 353.8640 107.1093  2.13102220 59878
COSMOS 2461 (735)       
1 36401U 10007B   17314.37272154 -.00000035  00000-0  10000-3 0  9992
2 36401  65.4842  59.7777 0007098  80.7873 205.8305  2.13102187 59882
COSMOS 2460 (732)       
1 36402U 10007C   17313.59417763 -.00000028  00000-0  10000-3 0  9995
2 36402  65.4756  59.7754 0001527 136.8732 313.4871  2.13101810 59875
COSMOS 2464 (736)       
1 37139U 10041C   17313.69551395  .00000008  00000-0  00000+0 0  9994
2 37139  64.6107 298.9476 0022113   5.6297 106.6543  2.13102768 55940
COSMOS 2471 (701K)      
1 37372U 11009A   17314.27184554 -.00000034  00000-0  00000+0 0  9992
2 37372  65.4737  59.6989 0008324 224.5104 164.9864  2.13107748 52162
COSMOS 2474 (742)       
1 37829U 11055A   17314.00393766  .00000032  00000-0  00000+0 0  9995
2 37829  64.5034 179.2175 0007137 245.0686 266.8201  2.13101964 47524
COSMOS 2476 (744)       
1 37867U 11064A   17314.34187435  .00000032  00000-0  00000+0 0  9998
2 37867  64.4839 179.2742 0016638 240.7675 216.3492  2.13102014 46881
COSMOS 2477 (745)       
1 37868U 11064B   17313.60604171  .00000033  00000-0  00000+0 0  9999
2 37868  64.4907 179.3454 0014557 242.0954 189.5736  2.13101933 46827
COSMOS 2475 (743)       
1 37869U 11064C   17314.08674302  .00000032  00000-0  00000+0 0  9995
2 37869  64.4991 179.3218 0018956 270.2746 126.7199  2.13102250 46849
COSMOS 2485 (747)       
1 39155U 13019A   17314.32405955  .00000032  00000-0  00000+0 0  9990
2 39155  64.6528 179.3358 0017098 235.2419 253.1920  2.13102076 35353
COSMOS 2492 (754)       
1 39620U 14012A   17314.26165390 -.00000034  00000-0  10000-3 0  9998
2 39620  65.3664  59.6677 0012961 330.6310 144.3546  2.13103471 28309
COSMOS 2500 (755)       
1 40001U 14032A   17313.92438487 -.00000031  00000-0  00000+0 0  9999
2 40001  65.3063  59.6658 0006982 195.0374 243.9517  2.13102818 26514
COSMOS 2501 (702K)      
1 40315U 14075A   17314.20729014  .00000005  00000-0  00000+0 0  9995
2 40315  64.3364 300.2201 0016778 213.3169 246.9224  2.13098643 22923
COSMOS 2514 (751)       
1 41330U 16008A   17314.42961500 -.00000036  00000-0  00000+0 0  9998
2 41330  65.1072  59.7567 0009957 207.5633  79.3825  2.13103423 13680
COSMOS 2516 (753)       
1 41554U 16032A   17313.78935205  .00000007  00000-0  00000+0 0  9991
2 41554  64.5564 300.0390 0014426 226.4245 181.2184  2.13101763 11289
COSMOS 2522 (752)       
1 42939U 17055A   17313.71452354  .00000008  00000-0  00000+0 0  9998
2 42939  64.7863 299.9444 0010248 250.6916 325.9041  2.13101936  1032
